SHIYAN-1 (SY-1)         
1 28220U 04012A   26170.72796284  .00011158  00000+0  34357-3 0  9992
2 28220  97.8686 248.9617 0005346  24.0812 336.0678 15.33814474211481
SINAH 1                 
1 28893U 05043D   26170.85606716  .00000229  00000+0  52968-4 0  9993
2 28893  98.2865 305.1937 0013135 267.5880  92.3818 14.64159104100914
SKYSAT-A                
1 39418U 13066C   26170.70438517  .00002071  00000+0  12046-3 0  9997
2 39418  97.3811 220.0216 0019939 308.1910  51.7525 15.12985941688868
SKYSAT-B                
1 40072U 14037D   26170.34417486  .00001009  00000+0  11651-3 0  9997
2 40072  98.3840 129.4321 0004158 272.5492  87.5247 14.88032683646280
SENTINEL-3A             
1 41335U 16011A   26170.81136042  .00000027  00000+0  29289-4 0  9998
2 41335  98.6249 238.1574 0001415  99.4675 260.6666 14.26733276538433
SKYSAT-C1               
1 41601U 16040C   26170.56114831  .00007375  00000+0  21024-3 0  9991
2 41601  96.9557 202.1525 0003270  53.7576 306.3971 15.36334265558237
SENTINEL-5P             
1 42969U 17064A   26170.66889080  .00000038  00000+0  38842-4 0  9998
2 42969  98.7925 112.7826 0000992  87.0975 273.0314 14.19519301449916
SENTINEL-3B             
1 43437U 18039A   26170.71438664  .00000070  00000+0  47152-4 0  9996
2 43437  98.6248 238.2105 0000727  93.2491 266.8773 14.26735355424487
SENTINEL-6A             
1 46984U 20086A   26170.58391345 -.00000051  00000+0  41848-4 0  9996
2 46984  66.0397 130.0742 0007924 270.1963  89.8144 12.80929975260634
SENTINEL-6B             
1 66514U 25264A   26170.58426147 -.00000052  00000+0  41222-4 0  9996
2 66514  66.0398 130.1996 0008002 269.1481  90.8617 12.80929984 27479
